NORAD_CAT_ID,OBJECT_NAME,OBJECT_TYPE,EPOCH,MEAN_MOTION,ECCENTRICITY,INCLINATION,RA_OF_ASC_NODE,ARG_OF_PERICENTER,MEAN_ANOMALY,BSTAR,MEAN_MOTION_DOT,MEAN_MOTION_DDOT,TLE_LINE0,TLE_LINE1,TLE_LINE2,SEMIMAJOR_AXIS,PERIOD,APOGEE,PERIGEE,DECAYED
52125.0,STARLINK-3727,PAYLOAD,2024-06-20 19:03:05,15.08841208,0.0001287,53.2181,3.3694,100.1132,260.0006,6.3045e-07,-2.78e-06,0.0,0 STARLINK-3727,1 52125U 22029AP  24172.79381233 -.00000278  00000-0  63045-6 0  9994,2 52125  53.2181   3.3694 0001287 100.1132 260.0006 15.08841208126299,6917.877,95.437,540.632,538.851,0.0
52125.0,STARLINK-3727,PAYLOAD,2024-06-21 12:32:20,15.08824919,0.0001408,53.2184,0.0982,98.0192,262.096,0.00033632,5.066e-05,0.0,0 STARLINK-3727,1 52125U 22029AP  24173.52245537  .00005066  00000-0  33632-3 0  9997,2 52125  53.2184   0.0982 0001408  98.0192 262.0960 15.08824919126406,6917.926,95.439,540.766,538.817,0.0
52125.0,STARLINK-3727,PAYLOAD,2024-06-21 18:53:52,15.08846013,0.0001363,53.2185,358.9088,96.435,263.6797,8.7788e-05,1.11e-05,0.0,0 STARLINK-3727,1 52125U 22029AP  24173.78740774  .00001110  00000-0  87788-4 0  9996,2 52125  53.2185 358.9088 0001363  96.4350 263.6797 15.08846013126445,6917.862,95.437,540.67,538.784,0.0
52125.0,STARLINK-3727,PAYLOAD,2024-06-22 18:44:39,15.08840635,0.0001378,53.2188,354.4488,95.7475,264.3674,4.7329e-05,4.65e-06,0.0,0 STARLINK-3727,1 52125U 22029AP  24174.78101221  .00000465  00000-0  47329-4 0  9994,2 52125  53.2188 354.4488 0001378  95.7475 264.3674 15.08840635126591,6917.878,95.438,540.697,538.79,0.0
52125.0,STARLINK-3727,PAYLOAD,2024-06-22 21:55:25,15.08843573,0.0001318,53.2183,353.853,95.7556,264.3586,6.2789e-05,7.12e-06,0.0,0 STARLINK-3727,1 52125U 22029AP  24174.91348936  .00000712  00000-0  62789-4 0  9997,2 52125  53.2183 353.8530 0001318  95.7556 264.3586 15.08843573126610,6917.869,95.437,540.646,538.823,0.0
52125.0,STARLINK-3727,PAYLOAD,2024-06-23 12:13:54,15.08839309,0.0001351,53.218,351.1748,98.1463,261.9683,-1.3764e-05,-5.07e-06,0.0,0 STARLINK-3727,1 52125U 22029AP  24175.50965447 -.00000507  00000-0 -13764-4 0  9998,2 52125  53.2180 351.1748 0001351  98.1463 261.9683 15.08839309126703,6917.883,95.438,540.682,538.813,0.0
52125.0,STARLINK-3727,PAYLOAD,2024-06-23 17:00:03,15.08841123,0.0001351,53.2181,350.2828,95.3203,264.7943,6.1106e-07,-2.78e-06,0.0,0 STARLINK-3727,1 52125U 22029AP  24175.70837291 -.00000278  00000-0  61106-6 0  9994,2 52125  53.2181 350.2828 0001351  95.3203 264.7943 15.08841123126734,6917.877,95.437,540.677,538.807,0.0
52125.0,STARLINK-3727,PAYLOAD,2024-06-24 10:29:18,15.08834508,0.0001385,53.2186,347.0112,86.9531,273.1619,3.1199e-05,2.09e-06,0.0,0 STARLINK-3727,1 52125U 22029AP  24176.43701758  .00000209  00000-0  31199-4 0  9993,2 52125  53.2186 347.0112 0001385  86.9531 273.1619 15.08834508126841,6917.897,95.438,540.72,538.804,0.0
52125.0,STARLINK-3727,PAYLOAD,2024-06-24 16:50:50,15.08837338,0.000133,53.2183,345.8226,91.1362,268.9782,4.0832e-05,3.62e-06,0.0,0 STARLINK-3727,1 52125U 22029AP  24176.70197577  .00000362  00000-0  40832-4 0  9995,2 52125  53.2183 345.8226 0001330  91.1362 268.9782 15.08837338126881,6917.889,95.438,540.674,538.833,0.0
52125.0,STARLINK-3727,PAYLOAD,2024-06-25 18:17:00,15.08843819,0.0001361,53.2186,341.0671,71.0101,289.1038,9.7393e-05,1.263e-05,0.0,0 STARLINK-3727,1 52125U 22029AP  24177.76181313  .00001263  00000-0  97393-4 0  9998,2 52125  53.2186 341.0671 0001361  71.0101 289.1038 15.08843819127047,6917.869,95.437,540.675,538.792,0.0
52125.0,STARLINK-3727,PAYLOAD,2024-06-26 03:49:19,15.08845335,0.0001322,53.2187,339.2823,76.5678,283.5461,0.00012264,1.665e-05,0.0,0 STARLINK-3727,1 52125U 22029AP  24178.15925060  .00001665  00000-0  12264-3 0  9996,2 52125  53.2187 339.2823 0001322  76.5678 283.5461 15.08845335127102,6917.864,95.437,540.644,538.815,0.0
52125.0,STARLINK-3727,PAYLOAD,2024-06-27 03:40:07,15.08837386,0.0001641,53.2204,334.8232,79.596,280.5217,4.3652e-05,4.07e-06,0.0,0 STARLINK-3727,1 52125U 22029AP  24179.15286010  .00000407  00000-0  43652-4 0  9991,2 52125  53.2204 334.8232 0001641  79.5960 280.5217 15.08837386127257,6917.888,95.438,540.889,538.618,0.0
52125.0,STARLINK-3727,PAYLOAD,2024-06-27 17:58:35,15.08842987,0.0001332,53.2189,332.1464,82.2599,277.8544,-7.97e-06,-4.15e-06,0.0,0 STARLINK-3727,1 52125U 22029AP  24179.74901924 -.00000415  00000-0 -79700-5 0  9999,2 52125  53.2189 332.1464 0001332  82.2599 277.8544 15.08842987127348,6917.871,95.437,540.658,538.815,0.0
52125.0,STARLINK-3727,PAYLOAD,2024-06-28 03:30:53,15.0884653,0.0001211,53.2165,330.3624,97.5947,262.5182,-1.7791e-05,-5.71e-06,0.0,0 STARLINK-3727,1 52125U 22029AP  24180.14645518 -.00000571  00000-0 -17791-4 0  9993,2 52125  53.2165 330.3624 0001211  97.5947 262.5182 15.08846530127406,6917.86,95.437,540.563,538.888,0.0
52125.0,STARLINK-3727,PAYLOAD,2024-06-28 14:38:35,15.08848113,0.0002026,53.2185,328.2792,83.8502,276.2721,0.00016595,2.354e-05,0.0,0 STARLINK-3727,1 52125U 22029AP  24180.61013358  .00002354  00000-0  16595-3 0  9995,2 52125  53.2185 328.2792 0002026  83.8502 276.2721 15.08848113127477,6917.856,95.437,541.122,538.319,0.0
52125.0,STARLINK-3727,PAYLOAD,2024-06-28 16:13:58,15.08844082,0.0001264,53.2169,327.9806,93.0968,267.0169,0.00026837,3.986e-05,0.0,0 STARLINK-3727,1 52125U 22029AP  24180.67636582  .00003986  00000-0  26837-3 0  9993,2 52125  53.2169 327.9806 0001264  93.0968 267.0169 15.08844082127489,6917.868,95.437,540.607,538.858,0.0
52125.0,STARLINK-3727,PAYLOAD,2024-06-29 09:43:14,15.08824159,0.0001626,53.2162,324.7105,100.9715,259.146,3.6641e-05,2.95e-06,0.0,0 STARLINK-3727,1 52125U 22029AP  24181.40502838  .00000295  00000-0  36641-4 0  9996,2 52125  53.2162 324.7105 0001626 100.9715 259.1460 15.08824159127590,6917.929,95.439,540.919,538.669,0.0
52125.0,STARLINK-3727,PAYLOAD,2024-06-29 14:29:24,15.08824116,0.0001556,53.2162,323.8189,98.7025,261.4144,3.285e-05,2.35e-06,0.0,0 STARLINK-3727,1 52125U 22029AP  24181.60375033  .00000235  00000-0  32850-4 0  9995,2 52125  53.2162 323.8189 0001556  98.7025 261.4144 15.08824116127624,6917.929,95.439,540.87,538.718,0.0
52125.0,STARLINK-3727,PAYLOAD,2024-06-29 16:04:46,15.08825502,0.0001415,53.2162,323.5199,109.9916,250.1229,6.0555e-05,6.76e-06,0.0,0 STARLINK-3727,1 52125U 22029AP  24181.66998823  .00000676  00000-0  60555-4 0  9991,2 52125  53.2162 323.5199 0001415 109.9916 250.1229 15.08825502127630,6917.925,95.438,540.769,538.811,0.0
52125.0,STARLINK-3727,PAYLOAD,2024-06-30 09:34:00,15.08844035,0.0001365,53.2177,320.2477,107.7226,252.3915,-2.9326e-05,-7.55e-06,0.0,0 STARLINK-3727,1 52125U 22029AP  24182.39862128 -.00000755  00000-0 -29326-4 0  9991,2 52125  53.2177 320.2477 0001365 107.7226 252.3915 15.08844035127743,6917.868,95.437,540.677,538.789,0.0
52125.0,STARLINK-3727,PAYLOAD,2024-06-30 14:20:09,15.08849616,0.0001285,53.2182,319.3601,104.7894,255.324,0.00016214,2.294e-05,0.0,0 STARLINK-3727,1 52125U 22029AP  24182.59733693  .00002294  00000-0  16214-3 0  9996,2 52125  53.2182 319.3601 0001285 104.7894 255.3240 15.08849616127773,6917.851,95.437,540.605,538.827,0.0
52125.0,STARLINK-3727,PAYLOAD,2024-06-30 15:55:32,15.08856989,0.0001211,53.2165,319.0638,110.8268,249.2854,8.3894e-05,1.048e-05,0.0,0 STARLINK-3727,1 52125U 22029AP  24182.66357225  .00001048  00000-0  83894-4 0  9992,2 52125  53.2165 319.0638 0001211 110.8268 249.2854 15.08856989127788,6917.828,95.436,540.531,538.856,0.0
52125.0,STARLINK-3727,PAYLOAD,2024-07-01 12:35:34,15.08843217,0.0001193,53.2161,315.1966,118.3992,241.7121,0.00027409,4.077e-05,0.0,0 STARLINK-3727,1 52125U 22029AP  24183.52470115  .00004077  00000-0  27409-3 0  9996,2 52125  53.2161 315.1966 0001193 118.3992 241.7121 15.08843217127910,6917.871,95.437,540.561,538.91,0.0
52125.0,STARLINK-3727,PAYLOAD,2024-07-01 14:10:57,15.08846832,0.0001228,53.2153,314.8967,108.6413,251.4713,0.00031343,4.705e-05,0.0,0 STARLINK-3727,1 52125U 22029AP  24183.59094039  .00004705  00000-0  31343-3 0  9990,2 52125  53.2153 314.8967 0001228 108.6413 251.4713 15.08846832127929,6917.86,95.437,540.574,538.875,0.0
52125.0,STARLINK-3727,PAYLOAD,2024-07-01 15:46:20,15.08851782,0.0001066,53.2148,314.5996,106.592,253.519,0.00039957,6.079e-05,0.0,0 STARLINK-3727,1 52125U 22029AP  24183.65717944  .00006079  00000-0  39957-3 0  9999,2 52125  53.2148 314.5996 0001066 106.5920 253.5190 15.08851782127935,6917.844,95.437,540.447,538.972,0.0
52125.0,STARLINK-3727,PAYLOAD,2024-07-02 12:26:21,15.08838409,0.0001124,53.2152,310.7341,108.2471,251.8643,-3.1525e-05,-7.89e-06,0.0,0 STARLINK-3727,1 52125U 22029AP  24184.51830131 -.00000789  00000-0 -31525-4 0  9997,2 52125  53.2152 310.7341 0001124 108.2471 251.8643 15.08838409128067,6917.885,95.438,540.528,538.973,0.0
52125.0,STARLINK-3727,PAYLOAD,2024-07-02 14:01:44,15.08837418,0.0001149,53.2162,310.4374,105.5774,254.5345,-8.1773e-05,-1.589e-05,0.0,0 STARLINK-3727,1 52125U 22029AP  24184.58454134 -.00001589  00000-0 -81773-4 0  9998,2 52125  53.2162 310.4374 0001149 105.5774 254.5345 15.08837418128073,6917.888,95.438,540.548,538.958,0.0
52125.0,STARLINK-3727,PAYLOAD,2024-07-02 15:37:07,15.08841725,0.0001103,53.2165,310.1401,101.1914,258.9202,-3.4418e-05,-8.36e-06,0.0,0 STARLINK-3727,1 52125U 22029AP  24184.65077974 -.00000836  00000-0 -34418-4 0  9997,2 52125  53.2165 310.1401 0001103 101.1914 258.9202 15.08841725128089,6917.875,95.437,540.503,538.977,0.0
52125.0,STARLINK-3727,PAYLOAD,2024-07-03 17:03:17,15.08851005,0.000103,53.2166,305.3856,103.5941,256.5166,0.00016726,2.376e-05,0.0,0 STARLINK-3727,1 52125U 22029AP  24185.71061776  .00002376  00000-0  16726-3 0  9998,2 52125  53.2166 305.3856 0001030 103.5941 256.5166 15.08851005128248,6917.847,95.437,540.424,538.999,0.0
52125.0,STARLINK-3727,PAYLOAD,2024-07-04 01:00:13,15.08837917,0.0001183,53.2158,303.8941,90.7329,269.3798,7.4721e-05,9.01e-06,0.0,0 STARLINK-3727,1 52125U 22029AP  24186.04182438  .00000901  00000-0  74721-4 0  9996,2 52125  53.2158 303.8941 0001183  90.7329 269.3798 15.08837917128297,6917.887,95.438,540.57,538.933,0.0
